start=new Date('2022-05-28T00:00:00.000Z').valueOf();
sats=[{"ELEMENT_SET_NO":"999","TLE_LINE1":"1 47757U 21017AM  22147.70578103  .00000421  00000-0  47182-4 0  9991","MEAN_MOTION":"15.06395101","PERIAPSIS":"546.057","OBJECT_ID":"2021-017AM","REF_FRAME":"TEME","SITE":"AFETR","NORAD_CAT_ID":"47757","PERIOD":"95.592","OBJECT_NAME":"STARLINK-2175","FILE":"3468079","REV_AT_EPOCH":"6942","CLASSIFICATION_TYPE":"U","EPOCH":"2022-05-27T16:56:19.480992","OBJECT_TYPE":"PAYLOAD","RA_OF_ASC_NODE":"295.5968","MEAN_ANOMALY":"303.8122","CENTER_NAME":"EARTH","SEMIMAJOR_AXIS":"6925.364","APOAPSIS":"548.400","BSTAR":"0.00004718200000","TLE_LINE2":"2 47757  53.0536 295.5968 0001692  56.3028 303.8122 15.06395101 69421","MEAN_ELEMENT_THEORY":"SGP4","DECAY_DATE":null,"LAUNCH_DATE":"2021-03-04","ARG_OF_PERICENTER":"56.3028","COUNTRY_CODE":"US","RCS_SIZE":"LARGE","ECCENTRICITY":"0.00016920","INCLINATION":"53.0536","EPHEMERIS_TYPE":"0","MEAN_MOTION_DOT":"0.00000421","GP_ID":"204715375","TIME_SYSTEM":"UTC","MEAN_MOTION_DDOT":"0.0000000000000"},{"ARG_OF_PERICENTER":"49.0536","COUNTRY_CODE":"US","RCS_SIZE":"LARGE","APOAPSIS":"548.402","BSTAR":"-0.00001788900000","TLE_LINE2":"2 47760  53.0556 304.8524 0001745  49.0536 311.0604 15.06406682 69345","MEAN_ELEMENT_THEORY":"SGP4","DECAY_DATE":null,"LAUNCH_DATE":"2021-03-04","GP_ID":"204715624","TIME_SYSTEM":"UTC","MEAN_MOTION_DDOT":"0.0000000000000","INCLINATION":"53.0556","ECCENTRICITY":"0.00017450","EPHEMERIS_TYPE":"0","MEAN_MOTION_DOT":"-0.00000548","PERIOD":"95.592","OBJECT_NAME":"STARLINK-2178","FILE":"3468079","REV_AT_EPOCH":"6934","CLASSIFICATION_TYPE":"U","EPOCH":"2022-05-27T20:53:50.670240","ELEMENT_SET_NO":"999","TLE_LINE1":"1 47760U 21017AQ  22147.87072535 -.00000548  00000-0 -17889-4 0  9994","MEAN_MOTION":"15.06406682","PERIAPSIS":"545.985","OBJECT_ID":"2021-017AQ","SITE":"AFETR","REF_FRAME":"TEME","NORAD_CAT_ID":"47760","MEAN_ANOMALY":"311.0604","CENTER_NAME":"EARTH","SEMIMAJOR_AXIS":"6925.328","OBJECT_TYPE":"PAYLOAD","RA_OF_ASC_NODE":"304.8524"},{"ECCENTRICITY":"0.00013590","INCLINATION":"53.0546","EPHEMERIS_TYPE":"0","MEAN_MOTION_DOT":"0.00000766","TIME_SYSTEM":"UTC","GP_ID":"204715867","MEAN_MOTION_DDOT":"0.0000000000000","BSTAR":"0.00007031800000","APOAPSIS":"548.174","MEAN_ELEMENT_THEORY":"SGP4","TLE_LINE2":"2 47761  53.0546 295.3138 0001359  79.0576 281.0566 15.06393585 69449","DECAY_DATE":null,"LAUNCH_DATE":"2021-03-04","ARG_OF_PERICENTER":"79.0576","COUNTRY_CODE":"US","RCS_SIZE":"LARGE","OBJECT_TYPE":"PAYLOAD","RA_OF_ASC_NODE":"295.3138","MEAN_ANOMALY":"281.0566","CENTER_NAME":"EARTH","SEMIMAJOR_AXIS":"6925.368","ELEMENT_SET_NO":"999","TLE_LINE1":"1 47761U 21017AR  22147.76843642  .00000766  00000-0  70318-4 0  9994","MEAN_MOTION":"15.06393585","PERIAPSIS":"546.292","OBJECT_ID":"2021-017AR","NORAD_CAT_ID":"47761","REF_FRAME":"TEME","SITE":"AFETR","FILE":"3468079","PERIOD":"95.593","OBJECT_NAME":"STARLINK-2179","REV_AT_EPOCH":"6944","CLASSIFICATION_TYPE":"U","EPOCH":"2022-05-27T18:26:32.906688"},{"RCS_SIZE":"LARGE","ARG_OF_PERICENTER":"56.1653","COUNTRY_CODE":"US","DECAY_DATE":null,"LAUNCH_DATE":"2021-03-04","APOAPSIS":"548.428","BSTAR":"0.00010768000000","MEAN_ELEMENT_THEORY":"SGP4","TLE_LINE2":"2 47762  53.0565 310.4988 0001731  56.1653 303.9501 15.06394951 69248","GP_ID":"204714626","TIME_SYSTEM":"UTC","MEAN_MOTION_DDOT":"0.0000000000000","EPHEMERIS_TYPE":"0","MEAN_MOTION_DOT":"0.00001322","INCLINATION":"53.0565","ECCENTRICITY":"0.00017310","CLASSIFICATION_TYPE":"U","EPOCH":"2022-05-27T17:28:50.374848","FILE":"3468079","OBJECT_NAME":"STARLINK-2180","PERIOD":"95.592","REV_AT_EPOCH":"6924","PERIAPSIS":"546.030","OBJECT_ID":"2021-017AS","NORAD_CAT_ID":"47762","SITE":"AFETR","REF_FRAME":"TEME","ELEMENT_SET_NO":"999","TLE_LINE1":"1 47762U 21017AS  22147.72836082  .00001322  00000-0  10768-3 0  9992","MEAN_MOTION":"15.06394951","SEMIMAJOR_AXIS":"6925.364","MEAN_ANOMALY":"303.9501","CENTER_NAME":"EARTH","RA_OF_ASC_NODE":"310.4988","OBJECT_TYPE":"PAYLOAD"},{"TIME_SYSTEM":"UTC","GP_ID":"204714876","MEAN_MOTION_DDOT":"0.0000000000000","INCLINATION":"53.0553","ECCENTRICITY":"0.00017540","EPHEMERIS_TYPE":"0","MEAN_MOTION_DOT":"-0.00000226","ARG_OF_PERICENTER":"60.9536","COUNTRY_CODE":"US","RCS_SIZE":"LARGE","BSTAR":"0.00000371400000","APOAPSIS":"548.457","MEAN_ELEMENT_THEORY":"SGP4","TLE_LINE2":"2 47763  53.0553 300.1286 0001754  60.9536 299.1629 15.06390468 69371","DECAY_DATE":null,"LAUNCH_DATE":"2021-03-04","MEAN_ANOMALY":"299.1629","CENTER_NAME":"EARTH","SEMIMAJOR_AXIS":"6925.378","OBJECT_TYPE":"PAYLOAD","RA_OF_ASC_NODE":"300.1286","FILE":"3468079","PERIOD":"95.593","OBJECT_NAME":"STARLINK-2181","REV_AT_EPOCH":"6937","CLASSIFICATION_TYPE":"U","EPOCH":"2022-05-27T19:26:56.688576","ELEMENT_SET_NO":"999","TLE_LINE1":"1 47763U 21017AT  22147.81037834 -.00000226  00000-0  37140-5 0  9999","MEAN_MOTION":"15.06390468","OBJECT_ID":"2021-017AT","PERIAPSIS":"546.028","NORAD_CAT_ID":"47763","SITE":"AFETR","REF_FRAME":"TEME"},{"MEAN_MOTION_DDOT":"0.0000000000000","TIME_SYSTEM":"UTC","GP_ID":"204716123","ECCENTRICITY":"0.00015840","INCLINATION":"53.0554","MEAN_MOTION_DOT":"0.00000510","EPHEMERIS_TYPE":"0","COUNTRY_CODE":"US","ARG_OF_PERICENTER":"65.4415","RCS_SIZE":"LARGE","TLE_LINE2":"2 47764  53.0554 309.9605 0001584  65.4415 294.6739 15.06399030 69299","MEAN_ELEMENT_THEORY":"SGP4","APOAPSIS":"548.314","BSTAR":"0.00005314500000","LAUNCH_DATE":"2021-03-04","DECAY_DATE":null,"CENTER_NAME":"EARTH","MEAN_ANOMALY":"294.6739","SEMIMAJOR_AXIS":"6925.352","OBJECT_TYPE":"PAYLOAD","RA_OF_ASC_NODE":"309.9605","REV_AT_EPOCH":"6929","OBJECT_NAME":"STARLINK-2182","PERIOD":"95.592","FILE":"3468079","EPOCH":"2022-05-27T20:18:40.975776","CLASSIFICATION_TYPE":"U","MEAN_MOTION":"15.06399030","TLE_LINE1":"1 47764U 21017AU  22147.84630759  .00000510  00000-0  53145-4 0  9995","ELEMENT_SET_NO":"999","REF_FRAME":"TEME","SITE":"AFETR","NORAD_CAT_ID":"47764","OBJECT_ID":"2021-017AU","PERIAPSIS":"546.120"},{"SEMIMAJOR_AXIS":"6925.363","MEAN_ANOMALY":"302.8979","CENTER_NAME":"EARTH","RA_OF_ASC_NODE":"310.4740","OBJECT_TYPE":"PAYLOAD","CLASSIFICATION_TYPE":"U","EPOCH":"2022-05-27T17:34:08.546304","PERIOD":"95.592","OBJECT_NAME":"STARLINK-2184","FILE":"3468079","REV_AT_EPOCH":"6921","OBJECT_ID":"2021-017AW","PERIAPSIS":"545.988","REF_FRAME":"TEME","SITE":"AFETR","NORAD_CAT_ID":"47766","ELEMENT_SET_NO":"999","TLE_LINE1":"1 47766U 21017AW  22147.73204336  .00001373  00000-0  11105-3 0  9990","MEAN_MOTION":"15.06395319","TIME_SYSTEM":"UTC","GP_ID":"204716367","MEAN_MOTION_DDOT":"0.0000000000000","EPHEMERIS_TYPE":"0","MEAN_MOTION_DOT":"0.00001373","INCLINATION":"53.0555","ECCENTRICITY":"0.00017900","RCS_SIZE":"LARGE","ARG_OF_PERICENTER":"57.2182","COUNTRY_CODE":"US","DECAY_DATE":null,"LAUNCH_DATE":"2021-03-04","APOAPSIS":"548.468","BSTAR":"0.00011105000000","TLE_LINE2":"2 47766  53.0555 310.4740 0001790  57.2182 302.8979 15.06395319 69214","MEAN_ELEMENT_THEORY":"SGP4"},{"MEAN_MOTION":"15.06397157","TLE_LINE1":"1 47767U 21017AX  22147.82373455  .00001785  00000-0  13873-3 0  9991","ELEMENT_SET_NO":"999","NORAD_CAT_ID":"47767","SITE":"AFETR","REF_FRAME":"TEME","PERIAPSIS":"546.001","OBJECT_ID":"2021-017AX","REV_AT_EPOCH":"6950","FILE":"3468079","OBJECT_NAME":"STARLINK-2185","PERIOD":"95.592","EPOCH":"2022-05-27T19:46:10.665120","CLASSIFICATION_TYPE":"U","OBJECT_TYPE":"PAYLOAD","RA_OF_ASC_NODE":"295.0602","CENTER_NAME":"EARTH","MEAN_ANOMALY":"296.2498","SEMIMAJOR_AXIS":"6925.357","MEAN_ELEMENT_THEORY":"SGP4","TLE_LINE2":"2 47767  53.0541 295.0602 0001763  63.8672 296.2498 15.06397157 69508","APOAPSIS":"548.443","BSTAR":"0.00013873000000","LAUNCH_DATE":"2021-03-04","DECAY_DATE":null,"COUNTRY_CODE":"US","ARG_OF_PERICENTER":"63.8672","RCS_SIZE":"LARGE","INCLINATION":"53.0541","ECCENTRICITY":"0.00017630","MEAN_MOTION_DOT":"0.00001785","EPHEMERIS_TYPE":"0","MEAN_MOTION_DDOT":"0.0000000000000","GP_ID":"204715126","TIME_SYSTEM":"UTC"},{"RCS_SIZE":"LARGE","COUNTRY_CODE":"US","ARG_OF_PERICENTER":"62.1422","LAUNCH_DATE":"2021-03-04","DECAY_DATE":null,"TLE_LINE2":"2 47768  53.0558 310.1031 0001665  62.1422 297.9735 15.03956878 68619","MEAN_ELEMENT_THEORY":"SGP4","APOAPSIS":"555.866","BSTAR":"0.00003937300000","MEAN_MOTION_DDOT":"0.0000000000000","TIME_SYSTEM":"UTC","GP_ID":"204687726","MEAN_MOTION_DOT":"0.00000274","EPHEMERIS_TYPE":"0","INCLINATION":"53.0558","ECCENTRICITY":"0.00016650","EPOCH":"2022-05-27T20:05:15.516096","CLASSIFICATION_TYPE":"U","REV_AT_EPOCH":"6861","PERIOD":"95.747","OBJECT_NAME":"STARLINK-2189","FILE":"3467777","SITE":"AFETR","REF_FRAME":"TEME","NORAD_CAT_ID":"47768","OBJECT_ID":"2021-017AY","PERIAPSIS":"553.557","TLE_LINE1":"1 47768U 21017AY  22147.83698514  .00000274  00000-0  39373-4 0  9995","ELEMENT_SET_NO":"999","MEAN_MOTION":"15.03956878","SEMIMAJOR_AXIS":"6932.847","CENTER_NAME":"EARTH","MEAN_ANOMALY":"297.9735","RA_OF_ASC_NODE":"310.1031","OBJECT_TYPE":"PAYLOAD"},{"EPOCH":"2022-05-27T20:57:49.596480","CLASSIFICATION_TYPE":"U","REV_AT_EPOCH":"6978","OBJECT_NAME":"STARLINK-2192","PERIOD":"95.591","FILE":"3468079","REF_FRAME":"TEME","SITE":"AFETR","NORAD_CAT_ID":"47769","PERIAPSIS":"545.976","OBJECT_ID":"2021-017AZ","ELEMENT_SET_NO":"999","TLE_LINE1":"1 47769U 21017AZ  22147.87349070 -.00004664  00000-0 -29432-3 0  9993","MEAN_MOTION":"15.06413768","SEMIMAJOR_AXIS":"6925.306","CENTER_NAME":"EARTH","MEAN_ANOMALY":"293.8801","RA_OF_ASC_NODE":"274.8319","OBJECT_TYPE":"PAYLOAD","RCS_SIZE":"LARGE","COUNTRY_CODE":"US","ARG_OF_PERICENTER":"66.2369","LAUNCH_DATE":"2021-03-04","DECAY_DATE":null,"TLE_LINE2":"2 47769  53.0559 274.8319 0001726  66.2369 293.8801 15.06413768 69786","MEAN_ELEMENT_THEORY":"SGP4","BSTAR":"-0.00029432000000","APOAPSIS":"548.367","MEAN_MOTION_DDOT":"0.0000000000000","TIME_SYSTEM":"UTC","GP_ID":"204715625","MEAN_MOTION_DOT":"-0.00004664","EPHEMERIS_TYPE":"0","INCLINATION":"53.0559","ECCENTRICITY":"0.00017260"}];
